[
    {
        "Altitude(m)": 622200.1027204749,
        "Argument of Periapsis(deg)": 0.0,
        "Eccentricity": 0.0,
        "Inclination(deg)": 60.0,
        "Latitude(deg)": -52.162525861508655,
        "Longitude(deg)": 22.360888872334712,
        "Mean Anomaly(deg)": -65.45450000000002,
        "RAAN(deg)": 170.00000000000003,
        "Satellite Name": "Test1 766",
        "Satellite Number": 766,
        "Semi-Major Axis(m)": 6980739.136638005,
        "Time(s)": 0
    },
    {
        "Altitude(m)": 622058.2699380683,
        "Argument of Periapsis(deg)": 0.00010418945913296404,
        "Eccentricity": 0.0,
        "Inclination(deg)": 60.0,
        "Latitude(deg)": -51.799274088676746,
        "Longitude(deg)": 23.128944764410697,
        "Mean Anomaly(deg)": -64.83439385453818,
        "RAAN(deg)": 169.99957995086027,
        "Satellite Name": "Test1 766",
        "Satellite Number": 766,
        "Semi-Major Axis(m)": 6980739.136638005,
        "Time(s)": 10
    }
]